STARLINK-35385          
1 65906U 25224AA  26068.21908498  .00031293  00000+0  10648-2 0  9992
2 65906  53.1605  13.4269 0000906 116.6777 243.4317 15.30183882 24787
2025-313BD              
1 67299U 25313BD  26068.62968741  .00081010  00000+0  27634-2 0  9995
2 67299  97.3970 145.2850 0007287 333.4514  26.6352 15.30002360 10838
